GLOBALSTAR M063         
1 26081U 00008A   25011.66278876 -.00000078  00000+0  71755-4 0  9998
2 26081  51.9927 163.7993 0004883  27.1040 345.8309 11.86168545139007
GLOBALSTAR M062         
1 26082U 00008B   25011.87894914 -.00000045  00000+0  38009-3 0  9997
2 26082  51.9817 195.4347 0007849 131.5993  17.0019 12.43457819477171
GLOBALSTAR M060         
1 26083U 00008C   25011.70735008 -.00000181  00000+0 -89238-3 0  9990
2 26083  52.0010 133.8086 0004126 153.4662 353.2134 12.17652572133307
GLOBALSTAR M064         
1 26084U 00008D   25011.88632213 -.00000064  00000+0  27408-3 0  9994
2 26084  52.0026 263.8842 0002239  96.1054 264.0034 11.88528630148511
GLOBALSTAR M065         
1 31571U 07020A   25011.67004420 -.00000106  00000+0 -13854-4 0  9991
2 31571  51.9915 342.6529 0010281 321.8292 209.3283 12.61991082813647
GLOBALSTAR M069         
1 31573U 07020C   25011.30972837 -.00000064  00000+0  23520-3 0  9991
2 31573  51.9964 304.4757 0000769  73.1879  67.4433 12.53309089814642
GLOBALSTAR M071         
1 31576U 07020F   25011.90383250 -.00000117  00000+0 -25284-3 0  9994
2 31576  52.0082 308.7545 0000963 102.0072 286.3832 12.18245622475891
